[{"OBJECT_NAME":"STARLINK-4395","OBJECT_ID":"2022-084L","EPOCH":"2026-03-09T17:25:46.160544","MEAN_MOTION":15.05715066,"ECCENTRICITY":0.00013965,"INCLINATION":97.6045,"RA_OF_ASC_NODE":131.2451,"ARG_OF_PERICENTER":58.4465,"MEAN_ANOMALY":301.6898,"EPHEMERIS_TYPE":0,"CLASSIFICATION_TYPE":"U","NORAD_CAT_ID":53199,"ELEMENT_SET_NO":999,"REV_AT_EPOCH":19938,"BSTAR":-0.0012973879,"MEAN_MOTION_DOT":-0.00018764,"MEAN_MOTION_DDOT":0},{"OBJECT_NAME":"PEGASUS DEB","OBJECT_ID":"1994-029AEZ","EPOCH":"2026-03-07T11:19:28.799040","MEAN_MOTION":14.72051152,"ECCENTRICITY":0.01604515,"INCLINATION":81.6595,"RA_OF_ASC_NODE":342.3991,"ARG_OF_PERICENTER":98.387,"MEAN_ANOMALY":263.5562,"EPHEMERIS_TYPE":0,"CLASSIFICATION_TYPE":"U","NORAD_CAT_ID":39314,"ELEMENT_SET_NO":999,"REV_AT_EPOCH":64575,"BSTAR":0.00096584038,"MEAN_MOTION_DOT":7.465e-5,"MEAN_MOTION_DDOT":0}]
